GLOBALSTAR M023         
1 25621U 99004A   25244.74801035 -.00000012  00000+0  51318-3 0  9997
2 25621  52.0097 180.3112 0010039 297.9338  92.5177 12.62503663225409
GLOBALSTAR M040         
1 25622U 99004B   25244.54655900 -.00000056  00000+0  26690-3 0  9997
2 25622  51.9907 185.1925 0000464 176.2879 355.2249 12.62016223224895
GLOBALSTAR M036         
1 25623U 99004C   25244.68537976 -.00000034  00000+0  70473-3 0  9999
2 25623  51.9984  38.6851 0010762 193.5096 178.7333 11.86607681188065
GLOBALSTAR M038         
1 25624U 99004D   25244.67494981 -.00000048  00000+0  38414-3 0  9991
2 25624  51.9954 211.2948 0001513 213.4517 317.7827 12.32531582211803
GLOBALSTAR M022         
1 25649U 99012A   25244.71693628 -.00000068  00000+0  22544-3 0  9990
2 25649  52.0035  82.8575 0002452 344.4497  94.9615 12.02502657185587
GLOBALSTAR M041         
1 25650U 99012B   25244.64503073 -.00000073  00000+0  15443-3 0  9994
2 25650  52.0048 326.8404 0001896 110.4238 249.6802 11.96683387187435
GLOBALSTAR M046         
1 25651U 99012C   25244.81386392  .00000046  00000+0  14815-2 0  9997
2 25651  52.0074  29.9297 0002640  61.0451  92.1645 12.09411354192937
GLOBALSTAR M037         
1 25652U 99012D   25244.75809506 -.00000004  00000+0  55399-3 0  9996
2 25652  52.0018 310.8751 0001831  10.3863 147.1394 12.62450651220945
